{"type": "FeatureCollection", "features": [ {"type": "Feature", "properties": {"norad_id": 38953, "name": "BEIDOU-2 G6 (C02)", "group": "beidou", "lat": -0.3016988024354353, "lon": 70.79487622464912, "alt_km": 35771.28489095912, "timestamp": "2025-12-23T16:57:12.617249+00:00", "meta": {"OBJECT_NAME": "BEIDOU-2 G6 (C02)", "OBJECT_ID": "2012-059A", "EPOCH": "2025-12-23T00:55:51.734208", "MEAN_MOTION": 1.00268399, "ECCENTRICITY": 0.00083158, "INCLINATION": 3.9737, "RA_OF_ASC_NODE": 75.4058, "ARG_OF_PERICENTER": 292.2728, "MEAN_ANOMALY": 182.0387, "EPHEMERIS_TYPE": 0, "CLASSIFICATION_TYPE": "U", "NORAD_CAT_ID": 38953, "ELEMENT_SET_NO": 999, "REV_AT_EPOCH": 4814, "BSTAR": 0, "MEAN_MOTION_DOT": -1.55e-06, "MEAN_MOTION_DDOT": 0}, "tle": {"line1": "1 38953U 12059A   25357.03879322 -.00000155  00000+0  00000+0 0  9991", "line2": "2 38953   3.9737  75.4058 0008315 292.2728 182.0387  1.00268399 48141"}}, "geometry": {"type": "Point", "coordinates": [70.79487622464912, -0.3016988024354353]}}, {"type": "Feature", "properties": {"norad_id": 40549, "name": "BEIDOU-3S IGSO-1S (C31)", "group": "beidou", "lat": 26.845333056290567, "lon": 92.00266382822949, "alt_km": 35679.53318845445, "timestamp": "2025-12-23T16:57:12.617265+00:00", "meta": {"OBJECT_NAME": "BEIDOU-3S IGSO-1S (C31)", "OBJECT_ID": "2015-019A", "EPOCH": "2025-12-18T19:55:38.829792", "MEAN_MOTION": 1.00292047, "ECCENTRICITY": 0.0036331, "INCLINATION": 49.5404, "RA_OF_ASC_NODE": 297.6395, "ARG_OF_PERICENTER": 194.0028, "MEAN_ANOMALY": 349.3621, "EPHEMERIS_TYPE": 0, "CLASSIFICATION_TYPE": "U", "NORAD_CAT_ID": 40549, "ELEMENT_SET_NO": 999, "REV_AT_EPOCH": 3926, "BSTAR": 0, "MEAN_MOTION_DOT": -1.83e-06, "MEAN_MOTION_DDOT": 0}, "tle": {"line1": "1 40549U 15019A   25352.83031053 -.00000183  00000+0  00000+0 0  9999", "line2": "2 40549  49.5404 297.6395 0036331 194.0028 349.3621  1.00292047 39264"}}, "geometry": {"type": "Point", "coordinates": [92.00266382822949, 26.845333056290567]}}, {"type": "Feature", "properties": {"norad_id": 40748, "name": "BEIDOU-3S M2S (C58)", "group": "beidou", "lat": -18.570029836108905, "lon": -65.51654880903239, "alt_km": 21517.37975435495, "timestamp": "2025-12-23T16:57:12.617294+00:00", "meta": {"OBJECT_NAME": "BEIDOU-3S M2S (C58)", "OBJECT_ID": "2015-037A", "EPOCH": "2025-12-22T03:06:37.980000", "MEAN_MOTION": 1.86229546, "ECCENTRICITY": 0.00118585, "INCLINATION": 55.0305, "RA_OF_ASC_NODE": 308.1418, "ARG_OF_PERICENTER": 270.827, "MEAN_ANOMALY": 89.0356, "EPHEMERIS_TYPE": 0, "CLASSIFICATION_TYPE": "U", "NORAD_CAT_ID": 40748, "ELEMENT_SET_NO": 999, "REV_AT_EPOCH": 7082, "BSTAR": 0, "MEAN_MOTION_DOT": -5.8e-07, "MEAN_MOTION_DDOT": 0}, "tle": {"line1": "1 40748U 15037A   25356.12960625 -.00000058  00000+0  00000+0 0  9993", "line2": "2 40748  55.0305 308.1418 0011858 270.8270  89.0356  1.86229546 70828"}}, "geometry": {"type": "Point", "coordinates": [-65.51654880903239, -18.570029836108905]}}, {"type": "Feature", "properties": {"norad_id": 40749, "name": "BEIDOU-3S M1S (C57)", "group": "beidou", "lat": -3.1417747743753552, "lon": 130.2569450725791, "alt_km": 21536.865603752623, "timestamp": "2025-12-23T16:57:12.617319+00:00", "meta": {"OBJECT_NAME": "BEIDOU-3S M1S (C57)", "OBJECT_ID": "2015-037B", "EPOCH": "2025-12-22T21:29:24.264672", "MEAN_MOTION": 1.86253921, "ECCENTRICITY": 0.00037347, "INCLINATION": 55.0261, "RA_OF_ASC_NODE": 308.1047, "ARG_OF_PERICENTER": 3.0626, "MEAN_ANOMALY": 356.941, "EPHEMERIS_TYPE": 0, "CLASSIFICATION_TYPE": "U", "NORAD_CAT_ID": 40749, "ELEMENT_SET_NO": 999, "REV_AT_EPOCH": 7084, "BSTAR": 0, "MEAN_MOTION_DOT": -5.5e-07, "MEAN_MOTION_DDOT": 0}, "tle": {"line1": "1 40749U 15037B   25356.89541973 -.00000055  00000+0  00000+0 0  9996", "line2": "2 40749  55.0261 308.1047 0003734   3.0626 356.9410  1.86253921 70846"}}, "geometry": {"type": "Point", "coordinates": [130.2569450725791, -3.1417747743753552]}}, {"type": "Feature", "properties": {"norad_id": 40938, "name": "BEIDOU-3S IGSO-2S (C56)", "group": "beidou", "lat": -1.1849250468744446, "lon": 81.90186329261658, "alt_km": 35533.3868172942, "timestamp": "2025-12-23T16:57:12.617335+00:00", "meta": {"OBJECT_NAME": "BEIDOU-3S IGSO-2S (C56)", "OBJECT_ID": "2015-053A", "EPOCH": "2025-12-22T18:37:28.318944", "MEAN_MOTION": 1.00268056, "ECCENTRICITY": 0.00606366, "INCLINATION": 49.495, "RA_OF_ASC_NODE": 260.888, "ARG_OF_PERICENTER": 188.7154, "MEAN_ANOMALY": 17.1653, "EPHEMERIS_TYPE": 0, "CLASSIFICATION_TYPE": "U", "NORAD_CAT_ID": 40938, "ELEMENT_SET_NO": 999, "REV_AT_EPOCH": 3758, "BSTAR": 0, "MEAN_MOTION_DOT": -1.06e-06, "MEAN_MOTION_DDOT": 0}, "tle": {"line1": "1 40938U 15053A   25356.77602221 -.00000106  00000+0  00000+0 0  9992", "line2": "2 40938  49.4950 260.8880 0060636 188.7154  17.1653  1.00268056 37588"}}, "geometry": {"type": "Point", "coordinates": [81.90186329261658, -1.1849250468744446]}}, {"type": "Feature", "properties": {"norad_id": 41434, "name": "BEIDOU-2 IGSO-6 (C13)", "group": "beidou", "lat": 34.30670434057536, "lon": 63.0482016965032, "alt_km": 36031.42237051054, "timestamp": "2025-12-23T16:57:12.617347+00:00", "meta": {"OBJECT_NAME": "BEIDOU-2 IGSO-6 (C13)", "OBJECT_ID": "2016-021A", "EPOCH": "2025-12-18T14:33:38.837664", "MEAN_MOTION": 1.00292299, "ECCENTRICITY": 0.00610054, "INCLINATION": 59.9732, "RA_OF_ASC_NODE": 39.8392, "ARG_OF_PERICENTER": 230.2031, "MEAN_ANOMALY": 129.1398, "EPHEMERIS_TYPE": 0, "CLASSIFICATION_TYPE": "U", "NORAD_CAT_ID": 41434, "ELEMENT_SET_NO": 999, "REV_AT_EPOCH": 3566, "BSTAR": 0, "MEAN_MOTION_DOT": -1.41e-06, "MEAN_MOTION_DDOT": 0}, "tle": {"line1": "1 41434U 16021A   25352.60669951 -.00000141  00000+0  00000+0 0  9990", "line2": "2 41434  59.9732  39.8392 0061005 230.2031 129.1398  1.00292299 35667"}}, "geometry": {"type": "Point", "coordinates": [63.0482016965032, 34.30670434057536]}}, {"type": "Feature", "properties": {"norad_id": 41586, "name": "BEIDOU-2 G7 (C03)", "group": "beidou", "lat": 0.8952567060023756, "lon": 97.24412907201771, "alt_km": 35767.57211150404, "timestamp": "2025-12-23T16:57:12.617360+00:00", "meta": {"OBJECT_NAME": "BEIDOU-2 G7 (C03)", "OBJECT_ID": "2016-037A", "EPOCH": "2025-12-23T13:08:38.014080", "MEAN_MOTION": 1.00269426, "ECCENTRICITY": 0.000514, "INCLINATION": 1.7815, "RA_OF_ASC_NODE": 67.9389, "ARG_OF_PERICENTER": 0.465, "MEAN_ANOMALY": 331.5304, "EPHEMERIS_TYPE": 0, "CLASSIFICATION_TYPE": "U", "NORAD_CAT_ID": 41586, "ELEMENT_SET_NO": 999, "REV_AT_EPOCH": 512, "BSTAR": 0, "MEAN_MOTION_DOT": -3.33e-06, "MEAN_MOTION_DDOT": 0}, "tle": {"line1": "1 41586U 16037A   25357.54766220 -.00000333  00000+0  00000+0 0  9993", "line2": "2 41586   1.7815  67.9389 0005140   0.4650 331.5304  1.00269426  5122"}}, "geometry": {"type": "Point", "coordinates": [97.24412907201771, 0.8952567060023756]}}, {"type": "Feature", "properties": {"norad_id": 43001, "name": "BEIDOU-3 M1 (C19)", "group": "beidou", "lat": 53.44950274621368, "lon": -174.10991332017954, "alt_km": 21547.525375419566, "timestamp": "2025-12-23T16:57:12.617372+00:00", "meta": {"OBJECT_NAME": "BEIDOU-3 M1 (C19)", "OBJECT_ID": "2017-069A", "EPOCH": "2025-12-21T09:37:16.890816", "MEAN_MOTION": 1.86231333, "ECCENTRICITY": 0.00096297, "INCLINATION": 56.5338, "RA_OF_ASC_NODE": 68.9479, "ARG_OF_PERICENTER": 302.2645, "MEAN_ANOMALY": 57.6886, "EPHEMERIS_TYPE": 0, "CLASSIFICATION_TYPE": "U", "NORAD_CAT_ID": 43001, "ELEMENT_SET_NO": 999, "REV_AT_EPOCH": 5529, "BSTAR": 0, "MEAN_MOTION_DOT": -3.5e-07, "MEAN_MOTION_DDOT": 0}, "tle": {"line1": "1 43001U 17069A   25355.40088994 -.00000035  00000+0  00000+0 0  9990", "line2": "2 43001  56.5338  68.9479 0009629 302.2645  57.6886  1.86231333 55292"}}, "geometry": {"type": "Point", "coordinates": [-174.10991332017954, 53.44950274621368]}}, {"type": "Feature", "properties": {"norad_id": 43002, "name": "BEIDOU-3 M2 (C20)", "group": "beidou", "lat": 27.001534362416308, "lon": -130.74276095686898, "alt_km": 21543.551789889232, "timestamp": "2025-12-23T16:57:12.617384+00:00", "meta": {"OBJECT_NAME": "BEIDOU-3 M2 (C20)", "OBJECT_ID": "2017-069B", "EPOCH": "2025-12-22T09:54:58.962816", "MEAN_MOTION": 1.86231087, "ECCENTRICITY": 0.00067293, "INCLINATION": 56.5339, "RA_OF_ASC_NODE": 68.9503, "ARG_OF_PERICENTER": 327.7398, "MEAN_ANOMALY": 32.2697, "EPHEMERIS_TYPE": 0, "CLASSIFICATION_TYPE": "U", "NORAD_CAT_ID": 43002, "ELEMENT_SET_NO": 999, "REV_AT_EPOCH": 5530, "BSTAR": 0, "MEAN_MOTION_DOT": -2.8e-07, "MEAN_MOTION_DDOT": 0}, "tle": {"line1": "1 43002U 17069B   25356.41318244 -.00000028  00000+0  00000+0 0  9999", "line2": "2 43002  56.5339  68.9503 0006729 327.7398  32.2697  1.86231087 55304"}}, "geometry": {"type": "Point", "coordinates": [-130.74276095686898, 27.001534362416308]}}, {"type": "Feature", "properties": {"norad_id": 43107, "name": "BEIDOU-3 M7 (C27)", "group": "beidou", "lat": -31.967686439320637, "lon": -78.02075604233592, "alt_km": 21534.351893055762, "timestamp": "2025-12-23T16:57:12.617396+00:00", "meta": {"OBJECT_NAME": "BEIDOU-3 M7 (C27)", "OBJECT_ID": "2018-003A", "EPOCH": "2025-12-22T03:44:43.463904", "MEAN_MOTION": 1.86232634, "ECCENTRICITY": 0.00029638, "INCLINATION": 54.4883, "RA_OF_ASC_NODE": 308.4878, "ARG_OF_PERICENTER": 66.6968, "MEAN_ANOMALY": 293.333, "EPHEMERIS_TYPE": 0, "CLASSIFICATION_TYPE": "U", "NORAD_CAT_ID": 43107, "ELEMENT_SET_NO": 999, "REV_AT_EPOCH": 5405, "BSTAR": 0, "MEAN_MOTION_DOT": -5.9e-07, "MEAN_MOTION_DDOT": 0}, "tle": {"line1": "1 43107U 18003A   25356.15605861 -.00000059  00000+0  00000+0 0  9993", "line2": "2 43107  54.4883 308.4878 0002963  66.6968 293.3330  1.86232634 54050"}}, "geometry": {"type": "Point", "coordinates": [-78.02075604233592, -31.967686439320637]}}]}